{
    "links": {
        "self": "http://www.neowsapp.com/rest/v1/neo/3720546?api_key=iIulBulltgU6a56xZRHN4H3l9WmuAYTsLGpBGhQ2"
    },
    "id": "3720546",
    "neo_reference_id": "3720546",
    "name": "(2015 KS154)",
    "designation": "2015 KS154",
    "nasa_jpl_url": "http://ssd.jpl.nasa.gov/sbdb.cgi?sstr=3720546",
    "absolute_magnitude_h": 22.0,
    "estimated_diameter": {
        "kilometers": {
            "estimated_diameter_min": 0.1058168859,
            "estimated_diameter_max": 0.2366137501
        },
        "meters": {
            "estimated_diameter_min": 105.8168859331,
            "estimated_diameter_max": 236.6137501138
        },
        "miles": {
            "estimated_diameter_min": 0.0657515442,
            "estimated_diameter_max": 0.1470249225
        },
        "feet": {
            "estimated_diameter_min": 347.1682720448,
            "estimated_diameter_max": 776.2918559233
        }
    },
    "is_potentially_hazardous_asteroid": false,
    "close_approach_data": [
        {
            "close_approach_date": "2015-06-06",
            "close_approach_date_full": "2015-Jun-06 14:28",
            "epoch_date_close_approach": 1433600880000,
            "relative_velocity": {
                "kilometers_per_second": "19.9965727636",
                "kilometers_per_hour": "71987.6619490396",
                "miles_per_hour": "44730.3336149463"
            },
            "miss_distance": {
                "astronomical": "0.0844652379",
                "lunar": "32.8569775431",
                "kilometers": "12635819.678883273",
                "miles": "7851534.2679762474"
            },
            "orbiting_body": "Earth"
        }
    ],
    "orbital_data": {
        "orbit_id": "12",
        "orbit_determination_date": "2017-04-06 08:33:23",
        "first_observation_date": "2015-05-26",
        "last_observation_date": "2015-06-07",
        "data_arc_in_days": 12,
        "observations_used": 121,
        "orbit_uncertainty": "8",
        "minimum_orbit_intersection": ".053187",
        "jupiter_tisserand_invariant": "3.836",
        "epoch_osculation": "2457172.5",
        "eccentricity": ".6908469997586997",
        "semi_major_axis": "1.729117922810099",
        "inclination": "7.090133352351242",
        "ascending_node_longitude": "227.327422923376",
        "orbital_period": "830.4917937844752",
        "perihelion_distance": ".5345619936077471",
        "perihelion_argument": "124.4002528979814",
        "aphelion_distance": "2.92367385201245",
        "perihelion_time": "2457230.672841072673",
        "mean_anomaly": "334.7833477189095",
        "mean_motion": ".4334780941778038",
        "equinox": "J2000",
        "orbit_class": {
            "orbit_class_type": "APO",
            "orbit_class_description": "Near-Earth asteroid orbits which cross the Earth’s orbit similar to that of 1862 Apollo",
            "orbit_class_range": "a (semi-major axis) > 1.0 AU; q (perihelion) < 1.017 AU"
        }
    },
    "is_sentry_object": false
}